LAPAN-A2 (IO-86)
1 40931U 15052B   24125.75410535  .00001439  00000-0  10753-3 0  9990
2 40931   6.0007 303.0442 0013195 190.3596 169.6260 14.77790770465026
LQSAT
1 40958U 15057A   24134.53069569  .00001956  00000-0  29946-3 0  9995
2 40958  97.6692 156.5164 0016428 229.2341 130.7444 14.74676655462500
PRATHAM
1 41783U 16059A   24133.81616237  .00003406  00000-0  64180-3 0  9996
2 41783  97.8380 154.8135 0033804 131.2461 229.1664 14.64785118407368
ALSAT-1N
1 41789U 16059G   24134.48083869  .00002571  00000-0  47028-3 0  9999
2 41789  97.8304 161.4640 0028849 107.9326 252.5027 14.66424008407800
CAS-2T & KS-1Q
1 41847U 16066G   24133.89913151  .00003197  00000-0  47787-3 0  9999
2 41847  98.4604 205.4581 0353344 283.6841  72.5247 14.41120785394417
MAX VALIER SAT
1 42778U 17036P   24133.85754795  .00186929  00000-0  11944-2 0  9994
2 42778  97.0988 170.9915 0000649 176.7205 183.4066 15.75810736383993
FOX-1B (AO-91)
1 43017U 17073E   24134.20667108  .00017033  00000-0  10578-2 0  9994
2 43017  97.5827  10.9400 0214468  51.0199 310.9910 14.92554540350447
CANX-2
1 32790U 08021H   24133.47684478  .00008386  00000-0  77321-3 0  9991
2 32790  97.7653  97.8933 0013984  93.3927 266.8893 14.94851614869959
AIST-2 (RS-43)
1 39133U 13015D   24134.47768376  .00008211  00000-0  47658-3 0  9996
2 39133  64.8712 213.8241 0007823 301.3898  58.6460 15.12701460608114
NANOSATC-BR1
1 40024U 14033Q   24134.52223501  .00015758  00000-0  11891-2 0  9993
2 40024  98.0638 105.2106 0004360 293.0099  67.0665 15.02511610538565
QB50P1
1 40025U 14033R   24134.45046819  .00012981  00000-0  10704-2 0  9998
2 40025  98.0432  94.0907 0007372 279.4526  80.5863 14.99150870538181
QB50P2
1 40032U 14033Y   24134.38952365  .00010536  00000-0  89912-3 0  9992
2 40032  98.0040  85.9421 0008293 271.4406  88.5866 14.97870900537985
PERSEUS-M2
1 40037U 14033AD  24133.77883800  .00005798  00000-0  60229-3 0  9990
2 40037  97.9263  64.4514 0012077 318.0490  41.9802 14.90260069536553
PERSEUS-M1
1 40039U 14033AF  24133.79862754  .00006143  00000-0  64153-3 0  9994
2 40039  97.9064  60.6275 0011818 317.0895  42.9399 14.90022117536413
POLYITAN-1
1 40042U 14033AJ  24134.38133977  .00017235  00000-0  13282-2 0  9992
2 40042  98.0668  97.2611 0012352 250.5293 109.4596 15.01638913538124
TIGRISAT
1 40043U 14033AK  24134.42861722  .00004939  00000-0  66201-3 0  9991
2 40043  97.6929 298.6727 0056640  57.8079 302.8608 14.78703403532625
UKUBE-1
1 40074U 14037F   24134.29824378  .00011943  00000-0  11477-2 0  9997
2 40074  98.3429  62.0956 0004276 158.0135 202.1267 14.93198260533578
EXOCUBE
1 40380U 15003E   24133.95024015  .00186893  00000-0  11625-2 0  9995
2 40380  99.0940 149.7684 0040109 228.0089 131.7752 15.75270779513869
DEORBITSAIL
1 40719U 15032E   24133.90912108  .00012785  00000-0  14590-2 0  9999
2 40719  97.6908 358.4646 0011757 249.9679 110.0271 14.86171577476854
HORYU-IV
1 41340U 16012D   24133.91371404  .00017565  00000-0  89865-3 0  9997
2 41340  31.0013 205.3436 0009281 334.1262  25.8913 15.15424837452791
DIDO-2
1 42000U 17008BE  24134.10908644  .00151249  00000-0  94438-3 0  9991
2 42000  97.1361 194.6237 0004905 224.6607 135.4265 15.76427480403256
AALTO-1
1 42775U 17036L   24134.30529462  .00103154  00000-0  11973-2 0  9994
2 42775  97.1077 163.6498 0002373 349.6590  10.4619 15.61430864383650
URSA MAIOR
1 42776U 17036M   24134.36626150  .00201771  00000-0  12920-2 0  9990
2 42776  97.1024 167.4061 0001364 233.8403 126.2737 15.75720075383891
D-SAT
1 42794U 17036AF  24133.92506894  .00008891  00000-0  63186-3 0  9992
2 42794  97.4944 117.1028 0107316 266.8004  92.0937 15.00316063375436
CORVUS-BC2
1 42846U 17042X   24134.51152274  .00006086  00000-0  52808-3 0  9995
2 42846  97.3743 321.5545 0008705 169.1096 191.0317 14.97366158372257
CORVUS-BC1
1 42847U 17042Y   24134.07520101  .00006155  00000-0  53184-3 0  9990
2 42847  97.3753 321.5399 0008631 162.9946 197.1568 14.97521682372204
CORVUS-BC3
1 43118U 18004H   24133.76737029  .00285856  00000-0  14015-2 0  9991
2 43118  97.2830 218.7656 0003242 292.5036  67.5889 15.81478313353310
GOMX4-B
1 43196U 18015E   24133.73078748  .00070280  00000-0  89292-3 0  9995
2 43196  97.6065 304.7443 0007995  92.4568 267.7603 15.59136517349995
GOMX4-A
1 43197U 18015F   24134.53863004  .00106671  00000-0  93474-3 0  9993
2 43197  97.5986 310.1779 0005410  81.0310 279.1563 15.68518989350439
APRIZESAT-5 
1 37792U 11044E   24134.46167808  .00002913  00000-0  40447-3 0  9999
2 37792  98.2452  37.5272 0054316 301.6781  57.9138 14.77724410685842
APRIZESAT-6
1 37793U 11044F   24133.63500456  .00003978  00000-0  59876-3 0  9996
2 37793  98.3061  16.1528 0045555  11.7029  20.7014 14.74340197684388
APRIZESAT-7
1 39416U 13066A   24133.85927149  .00004690  00000-0  52018-3 0  9995
2 39416  97.6689  94.2696 0037565 223.1489 136.6782 14.87211442567286
APRIZESAT-8
1 39425U 13066K   24133.87525007  .00004735  00000-0  56383-3 0  9993
2 39425  97.7270  87.4800 0047530 282.1000  77.4892 14.84004580566004
BUGSAT-1 (TITA)
1 40014U 14033E   24133.93861118  .00009383  00000-0  68421-3 0  9997
2 40014  98.1260 173.7646 0034952 251.0334 108.7101 15.03470209540347
SAUDISAT-4
1 40016U 14033G   24134.17295940  .00002771  00000-0  39213-3 0  9991
2 40016  97.6642 301.7175 0047835  43.9218 316.5780 14.77075569533052
TABLETSAT-AURORA
1 40017U 14033H   24134.50789963  .00008904  00000-0  67236-3 0  9992
2 40017  98.1196 155.8850 0012883 288.0789  71.9030 15.02590398539777
APRIZESAT-9
1 40018U 14033J   24134.38271592  .00002883  00000-0  45122-3 0  9993
2 40018  97.7990 281.4486 0070078 138.0277 222.6332 14.71834924531089
APRIZESAT-10
1 40019U 14033K   24134.39648979  .00002916  00000-0  48387-3 0  9995
2 40019  97.8633 273.1199 0081461 194.8311 165.0505 14.68743536530075
AISAT
1 40054U 14034B   24133.82621469  .00011804  00000-0  12784-2 0  9994
2 40054  98.3417 347.3497 0008966 230.8425 129.1994 14.88372571532558
COSMOS-2407 [+]
1 28380U 04028A   24133.97758284  .00000192  00000-0  18128-3 0  9993
2 28380  82.9583 281.4695 0038199 231.2694 252.5409 13.76207219994614
COSMOS-2414 [+]
1 28521U 05002A   24134.11082680  .00000233  00000-0  18220-3 0  9999
2 28521  82.9490 262.2418 0039915 352.9325   7.1270 13.87770215978027
COSMOS-2463 [+]
1 36519U 10017A   24133.97209522  .00000183  00000-0  18478-3 0  9995
2 36519  82.9588  91.9250 0037627  93.1140 331.1269 13.71556367703037
NOAA-15
1 25338U 98030A   24134.51878390  .00000703  00000-0  30889-3 0  9997
2 25338  98.5710 162.3662 0011448  69.4768 290.7640 14.26568671352494
NOAA-18
1 28654U 05018A   24134.44532005  .00000677  00000-0  38471-3 0  9992
2 28654  98.8744 211.6982 0014829 158.0569 202.1242 14.13199824978351
NOAA-19
1 33591U 09005A   24134.46266214  .00000594  00000-0  34291-3 0  9990
2 33591  99.0494 189.8909 0014275  34.4980 325.7115 14.12998196786723
SARAL
1 39086U 13009A   24133.94471818  .00000580  00000-0  23051-3 0  9991
2 39086  98.5514 319.5493 0002704  52.4585 307.6844 14.32405776586039
HODOYOSHI-1
1 40299U 14070B   24134.45300764  .00034418  00000-0  69934-3 0  9993
2 40299  97.1415 195.0227 0009013 154.7157 205.4535 15.46203401529750
LAPAN-A3
1 41603U 16040E   24134.20551054  .00006797  00000-0  27524-3 0  9993
2 41603  97.1439 149.5143 0010852 217.9585 142.0890 15.24932023437895
BIROS
1 41604U 16040F   24133.61018560  .00017178  00000-0  46961-3 0  9999
2 41604  97.1253 163.1070 0009746 163.2911 196.8658 15.37391526438719
METOP-A
1 29499U 06044A   24134.21890778  .00004397  00000-0  55906-3 0  9994
2 29499  98.3560 208.4807 0188278 339.8247  81.8733 14.70456438915642
METEOR M1
1 35865U 09049A   24134.18927064  .00000564  00000-0  27114-3 0  9993
2 35865  98.6309  96.2131 0002723  30.9984 329.1355 14.22693308760596
METOP-B
1 38771U 12049A   24134.47287315  .00000572  00000-0  28105-3 0  9996
2 38771  98.6294 192.4699 0001847 108.7805 251.3573 14.21528765604619
METEOR M2
1 40069U 14037A   24134.45701437  .00000593  00000-0  29267-3 0  9995
2 40069  98.4362 130.2491 0007019  97.9383 262.2592 14.20955174510696
CSSWE
1 38761U 12048D   24132.44271873 +.00045746 +00000+0 +27130-2 0    12
2 38761  64.6698  91.0652 0114270  29.7720 330.9834 15.05700874570022
MCUBED-2
1 39469U 13072H   24134.54226990  .00013897  00000-0  93165-3 0  9990
2 39469 120.5033 336.3096 0207904 278.4942  79.2608 14.91323789  2691
IPEX
1 39471U 13072K   24134.53719811  .00010917  00000-0  78737-3 0  9999
2 39471 120.4927 314.1780 0216358 275.3100  82.3308 14.87919108   606
FOX-1A (AO-85)
1 40967U 15058D   24128.41443626 +.00008789 +00000+0 +80183-3 0    10
2 40967  64.7697 124.2178 0185733 319.3231  39.4125 14.83364667462634
OOREOS
1 37224U 10062C   24133.82313895  .00006621  00000-0  74288-3 0  9996
2 37224  71.9739   6.3136 0013957  82.6955 277.5798 14.87029658  2574
FIREBIRD-B
1 39464U 13072C   24128.45952140 +.00019470 +00000+0 +11355-2 0    17
2 39464 120.4762  11.1310 0183873 288.8384  69.2821 14.98949398559739
STARS (KUKAI)
1 33498U 09002G   24133.73698325  .00007784  00000-0  91517-3 0  9996
2 33498  98.1208  47.2706 0010591 153.6300 206.5455 14.85113696824417
YUBELEINY-2 (RS-40)
1 38735U 12041C   24134.15369046  .00000043  00000-0  24290-3 0  9999
2 38735  82.4780 191.7205 0015972 296.1911  63.7526 12.42607778534910
AIST-1
1 39492U 13078C   24134.48433903  .00004267  00000-0  42441-3 0  9991
2 39492  82.4161 289.3229 0017436 318.0533  41.9350 14.91355740563397
VELOX-1
1 40057U 14034E   24134.56320780  .00007594  00000-0  88335-3 0  9998
2 40057  98.3460 348.0621 0007828 251.4102 108.6262 14.85594647532561
DX1
1 40071U 14037C   24134.51616818  .00004582  00000-0  54815-3 0  9992
2 40071  98.3351  45.4276 0006674 228.3599 131.7043 14.84673819532495
AAUSAT CUBESAT 2
1 32788U 08021F   24133.87962051  .00029055  00000-0  15236-2 0  9990
2 32788  97.5945 114.0636 0002945 318.1478  41.9528 15.15714385872974
COSMOS-2491 (RS-46) [i]
1 39497U 13076E   24134.18176737  .00000026  00000-0  11301-3 0  9990
2 39497  82.4826 285.4009 0012315 322.5324  37.4897 12.43476382470936
